start=new Date('2021-10-08T00:00:00.000Z').valueOf();
sats=[{"APOAPSIS":"548.240","OBJECT_ID":"2020-070S","OBJECT_NAME":"STARLINK-1699","ECCENTRICITY":"0.00014990","MEAN_ANOMALY":"290.7559","EPOCH":"2021-10-07T13:04:12.147456","MEAN_MOTION_DDOT":"0.0000000000000","TIME_SYSTEM":"UTC","REV_AT_EPOCH":"5621","MEAN_ELEMENT_THEORY":"SGP4","CLASSIFICATION_TYPE":"U","LAUNCH_DATE":"2020-10-06","FILE":"3150302","REF_FRAME":"TEME","DECAY_DATE":null,"MEAN_MOTION_DOT":"0.00000639","ARG_OF_PERICENTER":"69.3590","TLE_LINE1":"1 46548U 20070S   21280.54458504  .00000639  00000-0  61813-4 0  9995","SEMIMAJOR_AXIS":"6925.336","INCLINATION":"53.0556","ELEMENT_SET_NO":"999","PERIOD":"95.592","PERIAPSIS":"546.163","CENTER_NAME":"EARTH","TLE_LINE2":"2 46548  53.0556 222.8085 0001499  69.3590 290.7559 15.06403939 56216","MEAN_MOTION":"15.06403939","COUNTRY_CODE":"US","GP_ID":"186512235","EPHEMERIS_TYPE":"0","BSTAR":"0.00006181300000","RCS_SIZE":"LARGE","RA_OF_ASC_NODE":"222.8085","OBJECT_TYPE":"PAYLOAD","NORAD_CAT_ID":"46548","SITE":"AFETR"},{"ECCENTRICITY":"0.00017480","MEAN_ANOMALY":"292.1477","OBJECT_NAME":"STARLINK-1700","OBJECT_ID":"2020-070T","APOAPSIS":"548.433","ARG_OF_PERICENTER":"67.9698","TLE_LINE1":"1 46549U 20070T   21280.57313045  .00002099  00000-0  15981-3 0  9995","REF_FRAME":"TEME","FILE":"3150302","DECAY_DATE":null,"MEAN_MOTION_DOT":"0.00002099","MEAN_ELEMENT_THEORY":"SGP4","LAUNCH_DATE":"2020-10-06","CLASSIFICATION_TYPE":"U","MEAN_MOTION_DDOT":"0.0000000000000","EPOCH":"2021-10-07T13:45:18.470880","REV_AT_EPOCH":"5621","TIME_SYSTEM":"UTC","MEAN_MOTION":"15.06397209","CENTER_NAME":"EARTH","TLE_LINE2":"2 46549  53.0528 222.6744 0001748  67.9698 292.1477 15.06397209 56213","ELEMENT_SET_NO":"999","PERIOD":"95.592","PERIAPSIS":"546.012","SEMIMAJOR_AXIS":"6925.357","INCLINATION":"53.0528","SITE":"AFETR","RCS_SIZE":"LARGE","RA_OF_ASC_NODE":"222.6744","OBJECT_TYPE":"PAYLOAD","NORAD_CAT_ID":"46549","BSTAR":"0.00015981000000","COUNTRY_CODE":"US","GP_ID":"186511961","EPHEMERIS_TYPE":"0"},{"SITE":"AFETR","RA_OF_ASC_NODE":"222.7341","RCS_SIZE":"LARGE","NORAD_CAT_ID":"46550","OBJECT_TYPE":"PAYLOAD","BSTAR":"0.00017615000000","COUNTRY_CODE":"US","EPHEMERIS_TYPE":"0","GP_ID":"186510734","MEAN_MOTION":"15.06407203","CENTER_NAME":"EARTH","TLE_LINE2":"2 46550  53.0541 222.7341 0001700  67.1247 292.9921 15.06407203 56212","ELEMENT_SET_NO":"999","PERIAPSIS":"546.014","PERIOD":"95.592","SEMIMAJOR_AXIS":"6925.326","INCLINATION":"53.0541","TLE_LINE1":"1 46550U 20070U   21280.55932788  .00002344  00000-0  17615-3 0  9995","ARG_OF_PERICENTER":"67.1247","FILE":"3150302","REF_FRAME":"TEME","MEAN_MOTION_DOT":"0.00002344","DECAY_DATE":null,"MEAN_ELEMENT_THEORY":"SGP4","CLASSIFICATION_TYPE":"U","LAUNCH_DATE":"2020-10-06","EPOCH":"2021-10-07T13:25:25.928832","MEAN_MOTION_DDOT":"0.0000000000000","REV_AT_EPOCH":"5621","TIME_SYSTEM":"UTC","ECCENTRICITY":"0.00017000","MEAN_ANOMALY":"292.9921","OBJECT_NAME":"STARLINK-1701","OBJECT_ID":"2020-070U","APOAPSIS":"548.369"},{"INCLINATION":"53.0533","SEMIMAJOR_AXIS":"6925.358","PERIOD":"95.592","PERIAPSIS":"546.068","ELEMENT_SET_NO":"999","TLE_LINE2":"2 46552  53.0533 207.9215 0001667  66.7055 293.4109 15.06397006 56420","CENTER_NAME":"EARTH","MEAN_MOTION":"15.06397006","EPHEMERIS_TYPE":"0","GP_ID":"186462539","COUNTRY_CODE":"US","BSTAR":"0.00006430700000","NORAD_CAT_ID":"46552","OBJECT_TYPE":"PAYLOAD","RCS_SIZE":"LARGE","RA_OF_ASC_NODE":"207.9215","SITE":"AFETR","APOAPSIS":"548.377","OBJECT_ID":"2020-070W","OBJECT_NAME":"STARLINK-1649","MEAN_ANOMALY":"293.4109","ECCENTRICITY":"0.00016670","REV_AT_EPOCH":"5642","TIME_SYSTEM":"UTC","EPOCH":"2021-10-07T12:26:23.307648","MEAN_MOTION_DDOT":"0.0000000000000","LAUNCH_DATE":"2020-10-06","CLASSIFICATION_TYPE":"U","MEAN_ELEMENT_THEORY":"SGP4","MEAN_MOTION_DOT":"0.00000676","DECAY_DATE":null,"REF_FRAME":"TEME","FILE":"3149232","ARG_OF_PERICENTER":"66.7055","TLE_LINE1":"1 46552U 20070W   21280.51832532  .00000676  00000-0  64307-4 0  9996"},{"MEAN_ANOMALY":"291.8143","ECCENTRICITY":"0.00016360","OBJECT_NAME":"STARLINK-1664","OBJECT_ID":"2020-070X","APOAPSIS":"548.345","ARG_OF_PERICENTER":"68.3020","TLE_LINE1":"1 46553U 20070X   21280.94448968  .00001535  00000-0  12193-3 0  9990","MEAN_MOTION_DOT":"0.00001535","DECAY_DATE":null,"REF_FRAME":"TEME","FILE":"3150302","CLASSIFICATION_TYPE":"U","LAUNCH_DATE":"2020-10-06","MEAN_ELEMENT_THEORY":"SGP4","REV_AT_EPOCH":"5669","TIME_SYSTEM":"UTC","EPOCH":"2021-10-07T22:40:03.908352","MEAN_MOTION_DDOT":"0.0000000000000","MEAN_MOTION":"15.06400445","TLE_LINE2":"2 46553  53.0537 191.0108 0001636  68.3020 291.8143 15.06400445 56696","CENTER_NAME":"EARTH","PERIOD":"95.592","PERIAPSIS":"546.079","ELEMENT_SET_NO":"999","INCLINATION":"53.0537","SEMIMAJOR_AXIS":"6925.347","SITE":"AFETR","NORAD_CAT_ID":"46553","OBJECT_TYPE":"PAYLOAD","RCS_SIZE":"LARGE","RA_OF_ASC_NODE":"191.0108","BSTAR":"0.00012193000000","EPHEMERIS_TYPE":"0","GP_ID":"186511735","COUNTRY_CODE":"US"},{"ELEMENT_SET_NO":"999","PERIAPSIS":"546.011","PERIOD":"95.591","SEMIMAJOR_AXIS":"6925.312","INCLINATION":"53.0532","MEAN_MOTION":"15.06411781","CENTER_NAME":"EARTH","TLE_LINE2":"2 46554  53.0532 207.8583 0001684  66.5842 293.5324 15.06411781 56426","BSTAR":"0.00017366000000","COUNTRY_CODE":"US","EPHEMERIS_TYPE":"0","GP_ID":"186463536","SITE":"AFETR","RA_OF_ASC_NODE":"207.8583","RCS_SIZE":"LARGE","OBJECT_TYPE":"PAYLOAD","NORAD_CAT_ID":"46554","OBJECT_ID":"2020-070Y","APOAPSIS":"548.344","ECCENTRICITY":"0.00016840","MEAN_ANOMALY":"293.5324","OBJECT_NAME":"STARLINK-1671","MEAN_ELEMENT_THEORY":"SGP4","LAUNCH_DATE":"2020-10-06","CLASSIFICATION_TYPE":"U","MEAN_MOTION_DDOT":"0.0000000000000","EPOCH":"2021-10-07T12:47:36.228480","TIME_SYSTEM":"UTC","REV_AT_EPOCH":"5642","TLE_LINE1":"1 46554U 20070Y   21280.53305820  .00002307  00000-0  17366-3 0  9990","ARG_OF_PERICENTER":"66.5842","REF_FRAME":"TEME","FILE":"3149232","DECAY_DATE":null,"MEAN_MOTION_DOT":"0.00002307"},{"LAUNCH_DATE":"2020-10-06","CLASSIFICATION_TYPE":"U","MEAN_ELEMENT_THEORY":"SGP4","REV_AT_EPOCH":"5696","TIME_SYSTEM":"UTC","EPOCH":"2021-10-07T22:07:16.284000","MEAN_MOTION_DDOT":"0.0000000000000","TLE_LINE1":"1 46555U 20070Z   21280.92171625  .00009170  00000-0  74769-4 0  9994","ARG_OF_PERICENTER":"115.2166","MEAN_MOTION_DOT":"0.00009170","DECAY_DATE":null,"FILE":"3150302","REF_FRAME":"TEME","OBJECT_ID":"2020-070Z","APOAPSIS":"355.284","MEAN_ANOMALY":"244.8955","ECCENTRICITY":"0.00010010","OBJECT_NAME":"STARLINK-1674","BSTAR":"0.00007476900000","GP_ID":"186511235","EPHEMERIS_TYPE":"0","COUNTRY_CODE":"US","SITE":"AFETR","NORAD_CAT_ID":"46555","OBJECT_TYPE":"PAYLOAD","RA_OF_ASC_NODE":"171.7149","RCS_SIZE":"LARGE","PERIAPSIS":"353.936","PERIOD":"91.632","ELEMENT_SET_NO":"999","INCLINATION":"53.0503","SEMIMAJOR_AXIS":"6732.745","MEAN_MOTION":"15.71500409","TLE_LINE2":"2 46555  53.0503 171.7149 0001001 115.2166 244.8955 15.71500409 56962","CENTER_NAME":"EARTH"},{"DECAY_DATE":null,"MEAN_MOTION_DOT":"0.00002247","REF_FRAME":"TEME","FILE":"3149232","ARG_OF_PERICENTER":"70.6098","TLE_LINE1":"1 46556U 20070AA  21280.26077552  .00002247  00000-0  16972-3 0  9995","TIME_SYSTEM":"UTC","REV_AT_EPOCH":"5617","EPOCH":"2021-10-07T06:15:31.004928","MEAN_MOTION_DDOT":"0.0000000000000","CLASSIFICATION_TYPE":"U","LAUNCH_DATE":"2020-10-06","MEAN_ELEMENT_THEORY":"SGP4","OBJECT_NAME":"STARLINK-1676","MEAN_ANOMALY":"289.5088","ECCENTRICITY":"0.00018190","APOAPSIS":"548.494","OBJECT_ID":"2020-070AA","OBJECT_TYPE":"PAYLOAD","NORAD_CAT_ID":"46556","RCS_SIZE":"LARGE","RA_OF_ASC_NODE":"224.0771","SITE":"AFETR","EPHEMERIS_TYPE":"0","GP_ID":"186462039","COUNTRY_CODE":"US","BSTAR":"0.00016972000000","TLE_LINE2":"2 46556  53.0546 224.0771 0001819  70.6098 289.5088 15.06393375 56174","CENTER_NAME":"EARTH","MEAN_MOTION":"15.06393375","INCLINATION":"53.0546","SEMIMAJOR_AXIS":"6925.369","PERIOD":"95.593","PERIAPSIS":"545.974","ELEMENT_SET_NO":"999"},{"OBJECT_ID":"2020-070AB","APOAPSIS":"548.407","ECCENTRICITY":"0.00017410","MEAN_ANOMALY":"290.3130","OBJECT_NAME":"STARLINK-1679","MEAN_ELEMENT_THEORY":"SGP4","LAUNCH_DATE":"2020-10-06","CLASSIFICATION_TYPE":"U","MEAN_MOTION_DDOT":"0.0000000000000","EPOCH":"2021-10-07T12:05:09.298176","TIME_SYSTEM":"UTC","REV_AT_EPOCH":"5642","TLE_LINE1":"1 46557U 20070AB  21280.50357984  .00002213  00000-0  16739-3 0  9997","ARG_OF_PERICENTER":"69.8046","FILE":"3149232","REF_FRAME":"TEME","MEAN_MOTION_DOT":"0.00002213","DECAY_DATE":null,"ELEMENT_SET_NO":"999","PERIAPSIS":"545.995","PERIOD":"95.592","SEMIMAJOR_AXIS":"6925.336","INCLINATION":"53.0545","MEAN_MOTION":"15.06404067","CENTER_NAME":"EARTH","TLE_LINE2":"2 46557  53.0545 207.9848 0001741  69.8046 290.3130 15.06404067 56423","BSTAR":"0.00016739000000","COUNTRY_CODE":"US","EPHEMERIS_TYPE":"0","GP_ID":"186462791","SITE":"AFETR","RA_OF_ASC_NODE":"207.9848","RCS_SIZE":"LARGE","OBJECT_TYPE":"PAYLOAD","NORAD_CAT_ID":"46557"},{"OBJECT_ID":"2020-070AC","APOAPSIS":"548.425","ECCENTRICITY":"0.00017630","MEAN_ANOMALY":"290.5211","OBJECT_NAME":"STARLINK-1680","MEAN_ELEMENT_THEORY":"SGP4","LAUNCH_DATE":"2020-10-06","CLASSIFICATION_TYPE":"U","MEAN_MOTION_DDOT":"0.0000000000000","EPOCH":"2021-10-07T12:15:46.338336","REV_AT_EPOCH":"5643","TIME_SYSTEM":"UTC","ARG_OF_PERICENTER":"69.5967","TLE_LINE1":"1 46558U 20070AC  21280.51095299  .00002924  00000-0  21512-3 0  9991","FILE":"3149985","REF_FRAME":"TEME","MEAN_MOTION_DOT":"0.00002924","DECAY_DATE":null,"ELEMENT_SET_NO":"999","PERIOD":"95.592","PERIAPSIS":"545.983","SEMIMAJOR_AXIS":"6925.339","INCLINATION":"53.0534","MEAN_MOTION":"15.06403085","CENTER_NAME":"EARTH","TLE_LINE2":"2 46558  53.0534 207.9573 0001763  69.5967 290.5211 15.06403085 56432","BSTAR":"0.00021512000000","COUNTRY_CODE":"US","GP_ID":"186482719","EPHEMERIS_TYPE":"0","SITE":"AFETR","RCS_SIZE":"LARGE","RA_OF_ASC_NODE":"207.9573","OBJECT_TYPE":"PAYLOAD","NORAD_CAT_ID":"46558"}];
